BEIDOU 3 (C01)          
1 36287U 10001A   23018.23989302 -.00000265  00000+0  00000+0 0  9990
2 36287   1.8912  52.0842 0002446 268.7793  23.3112  1.00271137 47665
BEIDOU 5 (C06)          
1 36828U 10036A   23018.21936709 -.00000065  00000+0  00000+0 0  9998
2 36828  54.2054 174.2663 0034724 182.7784 306.3715  1.00289469 45738
BEIDOU 6 (C04)          
1 37210U 10057A   23018.63846413 -.00000096  00000+0  00000+0 0  9999
2 37210   0.9329  52.1921 0005382 176.2578 279.2203  1.00272863 44790
BEIDOU 7 (C07)          
1 37256U 10068A   23018.50416895 -.00000181  00000+0  00000+0 0  9999
2 37256  49.8257 287.0690 0023651 207.3344 269.9766  1.00300310 44306
BEIDOU 8 (C08)          
1 37384U 11013A   23016.52471255 -.00000161  00000+0  00000+0 0  9991
2 37384  60.5976  52.1585 0023535 189.9257 166.7578  1.00252256 43151
BEIDOU 9 (C09)          
1 37763U 11038A   23017.71651378  .00000048  00000+0  00000+0 0  9990
2 37763  54.4826 176.7785 0102214 227.2519  66.0909  1.00278847 42144
BEIDOU 10 (C10)         
1 37948U 11073A   23017.83852221 -.00000142  00000+0  00000+0 0  9993
2 37948  49.9493 286.7303 0086540 221.1837   6.4429  1.00285651 40903
BEIDOU 11 (C05)         
1 38091U 12008A   23018.16496256  .00000072  00000+0  00000+0 0  9992
2 38091   2.0554  71.3414 0011356 306.7311 217.3466  1.00271171 39984
BEIDOU 12 (C11)         
1 38250U 12018A   23018.06154280 -.00000071  00000+0  00000+0 0  9997
2 38250  56.6211 346.4658 0024823 259.9696 196.0466  1.86234427 73089
BEIDOU 13 (C12)         
1 38251U 12018B   23018.38688450 -.00000073  00000+0  00000+0 0  9996
2 38251  56.5352 345.7642 0015822 263.5784  94.6570  1.86234218 73085
BEIDOU 15 (C14)         
1 38775U 12050B   23017.68847429 -.00000026  00000+0  00000+0 0  9996
2 38775  55.5325 104.4798 0012029 323.5642 121.7678  1.86231231 70454
BEIDOU 16 (C02)         
1 38953U 12059A   23018.52861470 -.00000161  00000+0  00000+0 0  9999
2 38953   1.4568  82.3353 0009742 293.7631  15.8283  1.00274058 37410
BEIDOU 17 (C31)         
1 40549U 15019A   23017.86434279 -.00000156  00000+0  00000+0 0  9995
2 40549  51.5162 310.2585 0036415 200.4747   8.2176  1.00251891 28585
BEIDOU 18 (C57)         
1 40748U 15037A   23017.98514131 -.00000073  00000+0  00000+0 0  9993
2 40748  55.7809 344.5141 0004184 337.6696  20.3760  1.86233264 50905
BEIDOU 19 (C58)         
1 40749U 15037B   23017.78440047 -.00000072  00000+0  00000+0 0  9995
2 40749  55.7860 344.5111 0007080 315.3085  42.1919  1.86233010 50898
BEIDOU 20 (C18)         
1 40938U 15053A   23017.67428169 -.00000102  00000+0  00000+0 0  9996
2 40938  51.1662 273.4071 0042880 194.3400 346.4872  1.00289543 26851
BEIDOU IGSO-6 (C13)     
1 41434U 16021A   23017.63443229 -.00000145  00000+0  00000+0 0  9991
2 41434  58.4135  50.6246 0049704 223.2040 167.1627  1.00284117 24981
BEIDOU-2 G7 (C03)       
1 41586U 16037A   23018.56914113 -.00000340  00000+0  00000+0 0  9991
2 41586   1.8607  70.3347 0008195 350.0290  12.7720  1.00273690 24300
BEIDOU-3 M1 (C19)       
1 43001U 17069A   23018.39502465 -.00000027  00000+0  00000+0 0  9997
2 43001  55.6859 104.4839 0009264 285.7545  69.7245  1.86231479 35398
BEIDOU-3 M2 (C20)       
1 43002U 17069B   23018.34277959 -.00000027  00000+0  00000+0 0  9990
2 43002  55.6856 104.5214 0006855 308.8070  54.4113  1.86231316 35392
BEIDOU-3 M3 (C27)       
1 43107U 18003A   23018.35315166 -.00000075  00000+0  00000+0 0  9992
2 43107  55.2346 345.3230 0003885  41.4286 135.2353  1.86232458 34155
BEIDOU-3 M4 (C28)       
1 43108U 18003B   23017.78563944 -.00000073  00000+0  00000+0 0  9996
2 43108  55.2295 345.3308 0004287 269.1643 289.7002  1.86231104 34140
BEIDOU-3 M5 (C21)       
1 43207U 18018A   23017.39568511 -.00000026  00000+0  00000+0 0  9992
2 43207  55.6440 104.6235 0004057 335.9546  24.0484  1.86231546 33525
BEIDOU-3 M6 (C22)       
1 43208U 18018B   23017.46232705 -.00000026  00000+0  00000+0 0  9994
2 43208  55.6441 104.6265 0006670 297.3867  62.5708  1.86231605 33522
BEIDOU-3 M7 (C29)       
1 43245U 18029A   23017.95140847 -.00000074  00000+0  00000+0 0  9999
2 43245  55.1404 343.0898 0001638 296.7015 241.2139  1.86232585 32683
BEIDOU-3 M8 (C30)       
1 43246U 18029B   23018.35907534 -.00000075  00000+0  10000-3 0  9995
2 43246  55.1369 343.1051 0004929 346.1113 151.8367  1.86232826 32688
BEIDOU IGSO-7 (C16)     
1 43539U 18057A   23017.87437928 -.00000061  00000+0  00000+0 0  9992
2 43539  55.0977 173.8331 0052100 224.8694 142.6833  1.00244753 16660
BEIDOU-3 M9 (C23)       
1 43581U 18062A   23017.78345310  .00000127  00000+0  00000+0 0  9990
2 43581  54.2209 224.7527 0002308 331.9185 351.6991  1.86231932 30414
BEIDOU-3 M10 (C24)      
1 43582U 18062B   23017.59732234  .00000127  00000+0  00000+0 0  9995
2 43582  54.2213 224.7491 0007110  31.8734 258.8570  1.86231081 30418
BEIDOU-3 M11 (C25)      
1 43602U 18067A   23017.59900836  .00000128  00000+0  00000+0 0  9999
2 43602  54.3055 223.3825 0008062  21.4423 311.4227  1.86231611 29905
BEIDOU-3 M12 (C26)      
1 43603U 18067B   23018.08024507  .00000128  00000+0  00000+0 0  9997
2 43603  54.3024 223.3325 0004927  17.2519 188.5962  1.86231540 29935
BEIDOU-3 M13 (C32)      
1 43622U 18072A   23018.35851275 -.00000027  00000+0  00000+0 0  9993
2 43622  55.6134 104.1394 0006151 277.7559 143.2590  1.86231356 29459
BEIDOU-3 M14 (C33)      
1 43623U 18072B   23018.11253727 -.00000027  00000+0  00000+0 0  9996
2 43623  55.6141 104.1401 0003679 301.6774  44.6623  1.86231382 29444
BEIDOU-3 M15 (C34)      
1 43647U 18078A   23018.02410657 -.00000074  00000+0  10000-3 0  9992
2 43647  55.0367 343.2283 0008129 356.1052 185.9405  1.86227376 28957
BEIDOU-3 M16 (C35)      
1 43648U 18078B   23018.15813063 -.00000075  00000+0  00000+0 0  9991
2 43648  55.0316 343.2290 0004661 359.4830 180.7440  1.86232187 28977
BEIDOU-3 G1 (C59)       
1 43683U 18085A   23018.58799205 -.00000263  00000+0  00000+0 0  9995
2 43683   1.0701 145.4344 0002222  30.2720 293.6868  1.00272327 15565
BEIDOU-3 M17 (C36)      
1 43706U 18093A   23016.96533684  .00000126  00000+0  00000+0 0  9994
2 43706  54.3037 224.6810 0006923 291.2537  68.7361  1.86231871 28318
BEIDOU-3 M18 (C37)      
1 43707U 18093B   23018.21278101  .00000127  00000+0  00000+0 0  9996
2 43707  54.3036 224.6297 0006849 327.6872 240.0895  1.86232318 28325
BEIDOU-3 IGSO-1 (C38)   
1 44204U 19023A   23017.38089951 -.00000204  00000+0  00000+0 0  9990
2 44204  56.8739  50.6825 0021408 207.4763 112.2860  1.00298718 13857
BEIDOU-2 G8             
1 44231U 19027A   23018.61990488 -.00000233  00000+0  00000+0 0  9999
2 44231   1.3844  80.7433 0005223 137.4830 267.2452  1.00269231 13588
BEIDOU-3 IGSO-2 (C39)   
1 44337U 19035A   23018.32011615 -.00000085  00000+0  00000+0 0  9994
2 44337  55.1283 169.8170 0029423 192.5542 348.0426  1.00292328 13207
BEIDOU-3 M23 (C45)      
1 44542U 19061A   23017.97586566  .00000128  00000+0  00000+0 0  9990
2 44542  54.5304 224.8305 0008729   2.9095 357.1611  1.86231372 22581
BEIDOU-3 M24 (C46)      
1 44543U 19061B   23018.37966152  .00000126  00000+0  00000+0 0  9997
2 44543  54.5268 224.7867 0005788 358.7735 183.5975  1.86231851 22584
BEIDOU-3 IGSO-3         
1 44709U 19073A   23017.65225215 -.00000189  00000+0  00000+0 0  9992
2 44709  56.9171 294.1582 0028739 180.8111 353.2764  1.00297572 11943
BEIDOU-3 M21            
1 44793U 19078A   23018.08520663 -.00000075  00000+0  10000-3 0  9992
2 44793  54.8841 343.2216 0006484   2.2043 175.3162  1.86232178 21447
BEIDOU-3 M22            
1 44794U 19078B   23018.06305840 -.00000075  00000+0  00000+0 0  9994
2 44794  54.8574 343.2091 0005008 353.3768  81.3340  1.86232680 21449
BEIDOU-3 M19            
1 44864U 19090A   23018.18370124 -.00000027  00000+0  00000+0 0  9993
2 44864  55.5468 104.3450 0017128 268.4684  81.3531  1.86231763 21028
BEIDOU-3 M20            
1 44865U 19090B   23015.45952743 -.00000017  00000+0  00000+0 0  9993
2 44865  55.5474 104.4691 0014798 281.7904 131.4322  1.86231687 20958
BEIDOU-3 G2             
1 45344U 20017A   23018.52783021 -.00000126  00000+0  00000+0 0  9990
2 45344   1.9891   3.6043 0000573 266.1730 117.9460  1.00270602 10777
BEIDOU-3 G3             
1 45807U 20040A   23018.56904866 -.00000336  00000+0  00000+0 0  9999
2 45807   0.9758 313.1897 0007995 339.5903 140.3418  1.00274126  9585
